start=new Date('2022-03-05T00:00:00.000Z').valueOf();
sats=[{"ARG_OF_PERICENTER":"51.9555","SEMIMAJOR_AXIS":"6925.315","COUNTRY_CODE":"US","INCLINATION":"53.0567","MEAN_MOTION_DDOT":"0.0000000000000","REV_AT_EPOCH":"11571","BSTAR":"0.00012425000000","MEAN_ELEMENT_THEORY":"SGP4","APOAPSIS":"548.558","REF_FRAME":"TEME","FILE":"3344357","TIME_SYSTEM":"UTC","TLE_LINE1":"1 45072U 20006AE  22063.26135515  .00001570  00000-0  12425-3 0  9997","MEAN_MOTION":"15.06410892","OBJECT_TYPE":"PAYLOAD","RCS_SIZE":"LARGE","ELEMENT_SET_NO":"999","MEAN_MOTION_DOT":"0.00001570","GP_ID":"197841015","PERIAPSIS":"545.802","SITE":"AFETR","CLASSIFICATION_TYPE":"U","LAUNCH_DATE":"2020-01-29","EPOCH":"2022-03-04T06:16:21.084960","OBJECT_ID":"2020-006AE","MEAN_ANOMALY":"308.1613","OBJECT_NAME":"STARLINK-1168","CENTER_NAME":"EARTH","ECCENTRICITY":"0.00019900","PERIOD":"95.591","EPHEMERIS_TYPE":"0","DECAY_DATE":null,"NORAD_CAT_ID":"45072","RA_OF_ASC_NODE":"9.6669","TLE_LINE2":"2 45072  53.0567   9.6669 0001990  51.9555 308.1613 15.06410892115714"},{"RA_OF_ASC_NODE":"8.3551","TLE_LINE2":"2 45073  53.0559   8.3551 0001932  55.0439 305.0731 15.06394140115752","NORAD_CAT_ID":"45073","DECAY_DATE":null,"EPHEMERIS_TYPE":"0","PERIOD":"95.593","MEAN_ANOMALY":"305.0731","OBJECT_NAME":"STARLINK-1170","CENTER_NAME":"EARTH","OBJECT_ID":"2020-006AF","ECCENTRICITY":"0.00019320","LAUNCH_DATE":"2020-01-29","EPOCH":"2022-03-04T13:15:40.754592","PERIAPSIS":"545.894","SITE":"AFETR","CLASSIFICATION_TYPE":"U","GP_ID":"197841265","ELEMENT_SET_NO":"999","MEAN_MOTION_DOT":"0.00000882","RCS_SIZE":"LARGE","TLE_LINE1":"1 45073U 20006AF  22063.55255503  .00000882  00000-0  78104-4 0  9992","TIME_SYSTEM":"UTC","MEAN_MOTION":"15.06394140","OBJECT_TYPE":"PAYLOAD","BSTAR":"0.00007810400000","APOAPSIS":"548.569","MEAN_ELEMENT_THEORY":"SGP4","REF_FRAME":"TEME","FILE":"3344357","REV_AT_EPOCH":"11575","SEMIMAJOR_AXIS":"6925.367","COUNTRY_CODE":"US","INCLINATION":"53.0559","MEAN_MOTION_DDOT":"0.0000000000000","ARG_OF_PERICENTER":"55.0439"},{"TLE_LINE2":"2 45074  53.0551   6.9554 0001622  63.3948 296.7207 15.06399371115806","RA_OF_ASC_NODE":"6.9554","NORAD_CAT_ID":"45074","DECAY_DATE":null,"EPHEMERIS_TYPE":"0","PERIOD":"95.592","CENTER_NAME":"EARTH","MEAN_ANOMALY":"296.7207","OBJECT_NAME":"STARLINK-1172","OBJECT_ID":"2020-006AG","ECCENTRICITY":"0.00016220","EPOCH":"2022-03-04T20:52:08.680224","LAUNCH_DATE":"2020-01-29","SITE":"AFETR","CLASSIFICATION_TYPE":"U","PERIAPSIS":"546.092","GP_ID":"197902554","MEAN_MOTION_DOT":"0.00001198","ELEMENT_SET_NO":"999","RCS_SIZE":"LARGE","OBJECT_TYPE":"PAYLOAD","MEAN_MOTION":"15.06399371","TIME_SYSTEM":"UTC","TLE_LINE1":"1 45074U 20006AG  22063.86954491  .00001198  00000-0  99283-4 0  9991","FILE":"3344863","BSTAR":"0.00009928300000","APOAPSIS":"548.339","REF_FRAME":"TEME","MEAN_ELEMENT_THEORY":"SGP4","REV_AT_EPOCH":"11580","COUNTRY_CODE":"US","INCLINATION":"53.0551","MEAN_MOTION_DDOT":"0.0000000000000","SEMIMAJOR_AXIS":"6925.350","ARG_OF_PERICENTER":"63.3948"},{"MEAN_ELEMENT_THEORY":"SGP4","APOAPSIS":"548.382","REF_FRAME":"TEME","BSTAR":"0.00012445000000","FILE":"3344357","REV_AT_EPOCH":"11576","SEMIMAJOR_AXIS":"6925.342","MEAN_MOTION_DDOT":"0.0000000000000","INCLINATION":"53.0551","COUNTRY_CODE":"US","ARG_OF_PERICENTER":"65.6669","GP_ID":"197842253","ELEMENT_SET_NO":"999","MEAN_MOTION_DOT":"0.00001573","RCS_SIZE":"LARGE","TLE_LINE1":"1 45075U 20006AH  22063.57098016  .00001573  00000-0  12445-3 0  9993","TIME_SYSTEM":"UTC","MEAN_MOTION":"15.06402043","OBJECT_TYPE":"PAYLOAD","PERIOD":"95.592","ECCENTRICITY":"0.00016960","MEAN_ANOMALY":"294.4497","OBJECT_NAME":"STARLINK-1174","CENTER_NAME":"EARTH","OBJECT_ID":"2020-006AH","LAUNCH_DATE":"2020-01-29","EPOCH":"2022-03-04T13:42:12.685824","PERIAPSIS":"546.033","CLASSIFICATION_TYPE":"U","SITE":"AFETR","RA_OF_ASC_NODE":"8.2824","TLE_LINE2":"2 45075  53.0551   8.2824 0001696  65.6669 294.4497 15.06402043115760","NORAD_CAT_ID":"45075","DECAY_DATE":null,"EPHEMERIS_TYPE":"0"},{"PERIAPSIS":"546.025","CLASSIFICATION_TYPE":"U","SITE":"AFETR","LAUNCH_DATE":"2020-01-29","EPOCH":"2022-03-04T05:55:08.538240","ECCENTRICITY":"0.00017590","OBJECT_NAME":"STARLINK-1180","MEAN_ANOMALY":"293.7334","CENTER_NAME":"EARTH","OBJECT_ID":"2020-006AJ","PERIOD":"95.593","EPHEMERIS_TYPE":"0","DECAY_DATE":null,"NORAD_CAT_ID":"45076","RA_OF_ASC_NODE":"9.7359","TLE_LINE2":"2 45076  53.0564   9.7359 0001759  66.3839 293.7334 15.06390419115711","ARG_OF_PERICENTER":"66.3839","SEMIMAJOR_AXIS":"6925.378","MEAN_MOTION_DDOT":"0.0000000000000","COUNTRY_CODE":"US","INCLINATION":"53.0564","REV_AT_EPOCH":"11571","REF_FRAME":"TEME","APOAPSIS":"548.461","MEAN_ELEMENT_THEORY":"SGP4","BSTAR":"-0.00003617900000","FILE":"3344357","TLE_LINE1":"1 45076U 20006AJ  22063.24662660 -.00000820  00000-0 -36179-4 0  9997","TIME_SYSTEM":"UTC","OBJECT_TYPE":"PAYLOAD","MEAN_MOTION":"15.06390419","RCS_SIZE":"LARGE","ELEMENT_SET_NO":"999","MEAN_MOTION_DOT":"-0.00000820","GP_ID":"197840516"},{"NORAD_CAT_ID":"45077","RA_OF_ASC_NODE":"297.6823","TLE_LINE2":"2 45077  53.0517 297.6823 0007401 269.3721  90.6456 15.90356670116780","EPHEMERIS_TYPE":"0","DECAY_DATE":null,"MEAN_ANOMALY":"90.6456","CENTER_NAME":"EARTH","OBJECT_ID":"2020-006AK","OBJECT_NAME":"STARLINK-1182","ECCENTRICITY":"0.00074010","PERIOD":"90.546","PERIAPSIS":"296.343","SITE":"AFETR","CLASSIFICATION_TYPE":"U","LAUNCH_DATE":"2020-01-29","EPOCH":"2022-03-04T21:48:02.983968","ELEMENT_SET_NO":"999","MEAN_MOTION_DOT":"0.00290231","GP_ID":"197901805","TIME_SYSTEM":"UTC","TLE_LINE1":"1 45077U 20006AK  22063.90836787  .00290231  42127-4  93770-3 0  9998","OBJECT_TYPE":"PAYLOAD","MEAN_MOTION":"15.90356670","RCS_SIZE":"LARGE","REV_AT_EPOCH":"11678","BSTAR":"0.00093770000000","APOAPSIS":"306.229","MEAN_ELEMENT_THEORY":"SGP4","REF_FRAME":"TEME","FILE":"3344863","ARG_OF_PERICENTER":"269.3721","SEMIMAJOR_AXIS":"6679.421","COUNTRY_CODE":"US","INCLINATION":"53.0517","MEAN_MOTION_DDOT":"0.0000421270000"},{"CLASSIFICATION_TYPE":"U","SITE":"AFETR","PERIAPSIS":"545.914","EPOCH":"2022-03-04T15:54:53.280288","LAUNCH_DATE":"2020-01-29","ECCENTRICITY":"0.00018250","OBJECT_ID":"2020-006AL","MEAN_ANOMALY":"304.5296","OBJECT_NAME":"STARLINK-1177","CENTER_NAME":"EARTH","PERIOD":"95.591","EPHEMERIS_TYPE":"0","DECAY_DATE":null,"NORAD_CAT_ID":"45078","TLE_LINE2":"2 45078  53.0560   7.8810 0001825  55.5865 304.5296 15.06411773115763","RA_OF_ASC_NODE":"7.8810","ARG_OF_PERICENTER":"55.5865","MEAN_MOTION_DDOT":"0.0000000000000","INCLINATION":"53.0560","COUNTRY_CODE":"US","SEMIMAJOR_AXIS":"6925.312","REV_AT_EPOCH":"11576","FILE":"3344863","APOAPSIS":"548.441","REF_FRAME":"TEME","MEAN_ELEMENT_THEORY":"SGP4","BSTAR":"0.00007470100000","OBJECT_TYPE":"PAYLOAD","MEAN_MOTION":"15.06411773","TLE_LINE1":"1 45078U 20006AL  22063.66311667  .00000832  00000-0  74701-4 0  9997","TIME_SYSTEM":"UTC","RCS_SIZE":"LARGE","MEAN_MOTION_DOT":"0.00000832","ELEMENT_SET_NO":"999","GP_ID":"197902055"},{"RA_OF_ASC_NODE":"7.0678","TLE_LINE2":"2 45079  53.0553   7.0678 0001537  76.5051 283.6109 15.06394451115796","NORAD_CAT_ID":"45079","DECAY_DATE":null,"EPHEMERIS_TYPE":"0","PERIOD":"95.592","ECCENTRICITY":"0.00015370","CENTER_NAME":"EARTH","MEAN_ANOMALY":"283.6109","OBJECT_NAME":"STARLINK-1149","OBJECT_ID":"2020-006AM","LAUNCH_DATE":"2020-01-29","EPOCH":"2022-03-04T20:09:41.014656","PERIAPSIS":"546.166","CLASSIFICATION_TYPE":"U","SITE":"AFETR","GP_ID":"197903306","ELEMENT_SET_NO":"999","MEAN_MOTION_DOT":"-0.00000158","RCS_SIZE":"LARGE","TLE_LINE1":"1 45079U 20006AM  22063.84005804 -.00000158  00000-0  82592-5 0  9991","TIME_SYSTEM":"UTC","MEAN_MOTION":"15.06394451","OBJECT_TYPE":"PAYLOAD","APOAPSIS":"548.295","MEAN_ELEMENT_THEORY":"SGP4","REF_FRAME":"TEME","BSTAR":"0.00000825920000","FILE":"3344863","REV_AT_EPOCH":"11579","SEMIMAJOR_AXIS":"6925.366","MEAN_MOTION_DDOT":"0.0000000000000","COUNTRY_CODE":"US","INCLINATION":"53.0553","ARG_OF_PERICENTER":"76.5051"},{"LAUNCH_DATE":"2020-01-29","EPOCH":"2022-03-04T20:20:17.992608","PERIAPSIS":"545.872","CLASSIFICATION_TYPE":"U","SITE":"AFETR","PERIOD":"95.592","ECCENTRICITY":"0.00019460","CENTER_NAME":"EARTH","MEAN_ANOMALY":"304.6263","OBJECT_NAME":"STARLINK-1153","OBJECT_ID":"2020-006AN","DECAY_DATE":null,"EPHEMERIS_TYPE":"0","RA_OF_ASC_NODE":"7.0371","TLE_LINE2":"2 45080  53.0561   7.0371 0001946  55.4909 304.6263 15.06397848115809","NORAD_CAT_ID":"45080","SEMIMAJOR_AXIS":"6925.355","MEAN_MOTION_DDOT":"0.0000000000000","INCLINATION":"53.0561","COUNTRY_CODE":"US","ARG_OF_PERICENTER":"55.4909","MEAN_ELEMENT_THEORY":"SGP4","APOAPSIS":"548.568","REF_FRAME":"TEME","BSTAR":"0.00009926200000","FILE":"3344863","REV_AT_EPOCH":"11580","RCS_SIZE":"LARGE","TLE_LINE1":"1 45080U 20006AN  22063.84743047  .00001197  00000-0  99262-4 0  9995","TIME_SYSTEM":"UTC","OBJECT_TYPE":"PAYLOAD","MEAN_MOTION":"15.06397848","GP_ID":"197903549","ELEMENT_SET_NO":"999","MEAN_MOTION_DOT":"0.00001197"},{"DECAY_DATE":null,"EPHEMERIS_TYPE":"0","RA_OF_ASC_NODE":"8.3453","TLE_LINE2":"2 45081  53.0547   8.3453 0001790  62.5599 297.5572 15.06390620115769","NORAD_CAT_ID":"45081","LAUNCH_DATE":"2020-01-29","EPOCH":"2022-03-04T13:26:18.161952","PERIAPSIS":"546.003","SITE":"AFETR","CLASSIFICATION_TYPE":"U","PERIOD":"95.593","OBJECT_ID":"2020-006AP","MEAN_ANOMALY":"297.5572","OBJECT_NAME":"STARLINK-1151","CENTER_NAME":"EARTH","ECCENTRICITY":"0.00017900","RCS_SIZE":"LARGE","TLE_LINE1":"1 45081U 20006AP  22063.55993243 -.00000313  00000-0 -21066-5 0  9998","TIME_SYSTEM":"UTC","MEAN_MOTION":"15.06390620","OBJECT_TYPE":"PAYLOAD","GP_ID":"197841266","ELEMENT_SET_NO":"999","MEAN_MOTION_DOT":"-0.00000313","SEMIMAJOR_AXIS":"6925.377","INCLINATION":"53.0547","COUNTRY_CODE":"US","MEAN_MOTION_DDOT":"0.0000000000000","ARG_OF_PERICENTER":"62.5599","BSTAR":"-0.00000210660000","MEAN_ELEMENT_THEORY":"SGP4","APOAPSIS":"548.482","REF_FRAME":"TEME","FILE":"3344357","REV_AT_EPOCH":"11576"}];
